{
  "Acquia, Inc": [
    {
      "SubaddressType": "10th",
      "SubaddressIdentifier": "Floor",
      "PlaceName": "Boston,",
      "StateName": "MA",
      "ZipCode": "02109"
    },
    {
      "AddressNumber": "600",
      "StreetName": "Congress",
      "StreetNamePostType": "Ave",
      "PlaceName": "Austin,",
      "StateName": "TX",
      "ZipCode": "78701"
    },
    {
      "OccupancyType": "Suite",
      "OccupancyIdentifier": "550",
      "PlaceName": "Portland,",
      "StateName": "OR",
      "ZipCode": "97209"
    },
    {
      "OccupancyType": "Suite",
      "OccupancyIdentifier": "235",
      "PlaceName": "Clara,",
      "StateName": "CA",
      "ZipCode": "95050"
    },
    {
      "AddressNumber": "53",
      "StreetName": "State",
      "StreetNamePostType": "Street,",
      "OccupancyIdentifier": "10th",
      "OccupancyType": "Floor",
      "PlaceName": "Boston,",
      "StateName": "MA",
      "ZipCode": "02109",
      "CountryName": "States"
    },
    {
      "Recipient": "Texas",
      "AddressNumber": "600",
      "StreetName": "Congress",
      "StreetNamePostType": "Ave",
      "PlaceName": "Austin,",
      "StateName": "TX",
      "ZipCode": "78701",
      "CountryName": "States"
    },
    {
      "PlaceName": "Clara,",
      "StateName": "CA",
      "AddressNumber": "451",
      "StreetName": "Real",
      "OccupancyType": "Suite",
      "OccupancyIdentifier": "235",
      "ZipCode": "95050",
      "CountryName": "States"
    }
  ],
  "Acquire Media": [
    {
      "Recipient": "800Bloomington,",
      "StateName": "MN",
      "ZipCode": "55425"
    },
    {
      "Recipient": "RoadSuite",
      "PlaceName": "111Melbourne,",
      "StateName": "FL",
      "ZipCode": "32940"
    },
    {
      "LandmarkName": "Run",
      "PlaceName": "940Tampa,",
      "StateName": "FL",
      "ZipCode": "33602"
    },
    {
      "Recipient": "320Scottsdale,",
      "StateName": "AZ",
      "ZipCode": "85254"
    },
    {
      "Recipient": "PlazaSuite",
      "PlaceName": "Arbor,",
      "StateName": "MI",
      "ZipCode": "48103"
    },
    {
      "Recipient": "DriveSuite",
      "PlaceName": "220Rochester,",
      "StateName": "MN",
      "ZipCode": "55902"
    },
    {
      "Recipient": "401Roseland,",
      "StateName": "NJ",
      "ZipCode": "07068"
    },
    {
      "AddressNumber": "1960",
      "StreetNamePostType": "Road",
      "PlaceName": "503Houston,",
      "StateName": "TX",
      "ZipCode": "77069"
    },
    {
      "AddressNumber": "400",
      "StreetNamePreDirectional": "West",
      "OccupancyType": "Suite",
      "OccupancyIdentifier": "100Lindon,",
      "StateName": "UT",
      "ZipCode": "84042"
    }
  ],
  "Acrolinx GmbH": [
    {
      "OccupancyType": "Suite",
      "OccupancyIdentifier": "240",
      "PlaceName": "Waltham,",
      "StateName": "MA",
      "ZipCode": "02451"
    }
  ],
  "Act-On Software, Inc.": [
    {
      "AddressNumber": "121",
      "StreetNamePreDirectional": "SW",
      "StreetName": "Morrison",
      "PlaceName": "1600Portland,",
      "StateName": "OR",
      "ZipCode": "97204"
    }
  ],
  "Apple, Inc.": [
    {
      "PlaceName": "Cupertino,",
      "StateName": "CA",
      "ZipCode": "95014"
    },
    {
      "Recipient": "Apple",
      "AddressNumber": "One",
      "StreetName": "Park",
      "StreetNamePostType": "Way",
      "PlaceName": "Cupertino,",
      "StateName": "CA",
      "ZipCode": "95014"
    }
  ],
  "Aptara, Inc.": [
    {
      "OccupancyType": "Suite",
      "OccupancyIdentifier": "522",
      "PlaceName": "Church,",
      "StateName": "VA",
      "ZipCode": "22042"
    },
    {
      "OccupancyType": "Suite",
      "OccupancyIdentifier": "301",
      "PlaceName": "Newton,",
      "StateName": "MA",
      "ZipCode": "02458"
    },
    {
      "AddressNumber": "2901",
      "StreetName": "Telestar",
      "StreetNamePostType": "Court,",
      "OccupancyType": "Suite",
      "OccupancyIdentifier": "522",
      "PlaceName": "Church,",
      "StateName": "VA",
      "ZipCode": "22042"
    },
    {
      "AddressNumber": "150",
      "StreetName": "California",
      "StreetNamePostType": "Street,",
      "OccupancyType": "Suite",
      "OccupancyIdentifier": "301",
      "PlaceName": "Newton,",
      "StateName": "MA",
      "ZipCode": "02458"
    }
  ]
}
